GLOBALSTAR M045         
1 25676U 99019A   25318.49696332 -.00000079  00000+0  13105-3 0  9994
2 25676  51.9964 236.8520 0000864  73.4554  98.2033 12.27068222211847
GLOBALSTAR M019         
1 25677U 99019B   25318.56114097 -.00000109  00000+0 -19809-3 0  9998
2 25677  51.9909  17.6166 0001005 245.0695 263.0139 12.13879772203406
GLOBALSTAR M044         
1 25678U 99019C   25318.52586105 -.00000073  00000+0  15206-3 0  9994
2 25678  51.9993 347.8833 0006046 330.2415 198.0809 11.90259447189225
GLOBALSTAR M049         
1 25771U 99031B   25318.45102684 -.00000066  00000+0 -22833-4 0  9998
2 25771  51.9857 213.4894 0002111 283.7226  76.3335 11.12122113134140
GLOBALSTAR M047         
1 25772U 99031C   25318.36045838 -.00000064  00000+0  16467-3 0  9998
2 25772  51.9803 196.3160 0016392 156.7156 203.4395 11.31931214488113
GLOBALSTAR M052         
1 25773U 99031D   25318.76779602 -.00000006  00000+0  20249-2 0  9994
2 25773  51.9884 319.3275 0002730  58.8265 112.1682 11.15061571495307
